start=new Date('2021-11-03T00:00:00.000Z').valueOf();
sats=[{"GP_ID":"188771943","FILE":"3198350","CENTER_NAME":"EARTH","REV_AT_EPOCH":"6696","SITE":"AFETR","CLASSIFICATION_TYPE":"U","PERIOD":"95.592","BSTAR":"0.00003441900000","INCLINATION":"53.0536","MEAN_MOTION_DOT":"0.00000231","OBJECT_NAME":"STARLINK-1621","OBJECT_ID":"2020-057L","EPHEMERIS_TYPE":"0","COUNTRY_CODE":"US","MEAN_MOTION":"15.06401108","RA_OF_ASC_NODE":"226.2646","RCS_SIZE":"LARGE","REF_FRAME":"TEME","ARG_OF_PERICENTER":"71.9896","DECAY_DATE":null,"APOAPSIS":"548.381","NORAD_CAT_ID":"46127","TLE_LINE1":"1 46127U 20057L   21306.50464754  .00000231  00000-0  34419-4 0  9992","TIME_SYSTEM":"UTC","OBJECT_TYPE":"PAYLOAD","EPOCH":"2021-11-02T12:06:41.547456","TLE_LINE2":"2 46127  53.0536 226.2646 0001690  71.9896 288.1277 15.06401108 66966","MEAN_MOTION_DDOT":"0.0000000000000","MEAN_ANOMALY":"288.1277","MEAN_ELEMENT_THEORY":"SGP4","LAUNCH_DATE":"2020-08-18","SEMIMAJOR_AXIS":"6925.345","ELEMENT_SET_NO":"999","ECCENTRICITY":"0.00016900","PERIAPSIS":"546.040"},{"PERIOD":"95.592","BSTAR":"0.00006388500000","CLASSIFICATION_TYPE":"U","COUNTRY_CODE":"US","MEAN_MOTION_DOT":"0.00000670","INCLINATION":"53.0549","OBJECT_ID":"2020-057M","OBJECT_NAME":"STARLINK-1622","EPHEMERIS_TYPE":"0","GP_ID":"188772193","SITE":"AFETR","FILE":"3198350","REV_AT_EPOCH":"6731","CENTER_NAME":"EARTH","OBJECT_TYPE":"PAYLOAD","TIME_SYSTEM":"UTC","EPOCH":"2021-11-02T22:19:44.194368","TLE_LINE1":"1 46128U 20057M   21306.93037262  .00000670  00000-0  63885-4 0  9996","SEMIMAJOR_AXIS":"6925.361","ELEMENT_SET_NO":"999","ECCENTRICITY":"0.00017310","PERIAPSIS":"546.028","TLE_LINE2":"2 46128  53.0549 204.3545 0001731  68.5287 291.5886 15.06395802 67315","MEAN_MOTION_DDOT":"0.0000000000000","MEAN_ELEMENT_THEORY":"SGP4","MEAN_ANOMALY":"291.5886","LAUNCH_DATE":"2020-08-18","RCS_SIZE":"LARGE","RA_OF_ASC_NODE":"204.3545","REF_FRAME":"TEME","ARG_OF_PERICENTER":"68.5287","MEAN_MOTION":"15.06395802","APOAPSIS":"548.425","NORAD_CAT_ID":"46128","DECAY_DATE":null},{"TIME_SYSTEM":"UTC","OBJECT_TYPE":"PAYLOAD","EPOCH":"2021-11-02T21:42:34.750368","TLE_LINE1":"1 46129U 20057N   21306.90456887  .00001122  00000-0  94213-4 0  9994","PERIAPSIS":"545.977","SEMIMAJOR_AXIS":"6925.331","ELEMENT_SET_NO":"999","ECCENTRICITY":"0.00017600","LAUNCH_DATE":"2020-08-18","MEAN_MOTION_DDOT":"0.0000000000000","TLE_LINE2":"2 46129  53.0540 204.4696 0001760  73.7343 286.3839 15.06405772 67316","MEAN_ELEMENT_THEORY":"SGP4","MEAN_ANOMALY":"286.3839","REF_FRAME":"TEME","ARG_OF_PERICENTER":"73.7343","RA_OF_ASC_NODE":"204.4696","RCS_SIZE":"LARGE","MEAN_MOTION":"15.06405772","APOAPSIS":"548.415","NORAD_CAT_ID":"46129","DECAY_DATE":null,"BSTAR":"0.00009421300000","PERIOD":"95.592","CLASSIFICATION_TYPE":"U","COUNTRY_CODE":"US","OBJECT_NAME":"STARLINK-1623","OBJECT_ID":"2020-057N","EPHEMERIS_TYPE":"0","MEAN_MOTION_DOT":"0.00001122","INCLINATION":"53.0540","GP_ID":"188773444","SITE":"AFETR","CENTER_NAME":"EARTH","REV_AT_EPOCH":"6731","FILE":"3198350"},{"TLE_LINE1":"1 46130U 20057P   21306.93775245 -.00002433  00000-0 -14453-3 0  9996","EPOCH":"2021-11-02T22:30:21.811680","TIME_SYSTEM":"UTC","OBJECT_TYPE":"PAYLOAD","MEAN_ANOMALY":"290.3363","MEAN_ELEMENT_THEORY":"SGP4","TLE_LINE2":"2 46130  53.0536 204.3164 0001524  69.7790 290.3363 15.06391017 68562","MEAN_MOTION_DDOT":"0.0000000000000","LAUNCH_DATE":"2020-08-18","SEMIMAJOR_AXIS":"6925.376","ELEMENT_SET_NO":"999","ECCENTRICITY":"0.00015240","PERIAPSIS":"546.186","MEAN_MOTION":"15.06391017","RCS_SIZE":"LARGE","RA_OF_ASC_NODE":"204.3164","ARG_OF_PERICENTER":"69.7790","REF_FRAME":"TEME","DECAY_DATE":null,"APOAPSIS":"548.297","NORAD_CAT_ID":"46130","CLASSIFICATION_TYPE":"U","PERIOD":"95.593","BSTAR":"-0.00014453000000","MEAN_MOTION_DOT":"-0.00002433","INCLINATION":"53.0536","EPHEMERIS_TYPE":"0","OBJECT_ID":"2020-057P","OBJECT_NAME":"STARLINK-1624","COUNTRY_CODE":"US","GP_ID":"188773195","FILE":"3198350","REV_AT_EPOCH":"6856","CENTER_NAME":"EARTH","SITE":"AFETR"},{"TLE_LINE1":"1 46131U 20057Q   21306.48621883 -.00000644  00000-0 -24350-4 0  9995","EPOCH":"2021-11-02T11:40:09.306912","OBJECT_TYPE":"PAYLOAD","TIME_SYSTEM":"UTC","LAUNCH_DATE":"2020-08-18","MEAN_ANOMALY":"289.7684","MEAN_ELEMENT_THEORY":"SGP4","TLE_LINE2":"2 46131  53.0542 226.3482 0001539  70.3471 289.7684 15.06395267 67622","MEAN_MOTION_DDOT":"0.0000000000000","PERIAPSIS":"546.162","SEMIMAJOR_AXIS":"6925.363","ELEMENT_SET_NO":"999","ECCENTRICITY":"0.00015390","MEAN_MOTION":"15.06395267","ARG_OF_PERICENTER":"70.3471","REF_FRAME":"TEME","RA_OF_ASC_NODE":"226.3482","RCS_SIZE":"LARGE","DECAY_DATE":null,"APOAPSIS":"548.294","NORAD_CAT_ID":"46131","CLASSIFICATION_TYPE":"U","BSTAR":"-0.00002435000000","PERIOD":"95.592","EPHEMERIS_TYPE":"0","OBJECT_ID":"2020-057Q","OBJECT_NAME":"STARLINK-1625","INCLINATION":"53.0542","MEAN_MOTION_DOT":"-0.00000644","COUNTRY_CODE":"US","GP_ID":"188745235","CENTER_NAME":"EARTH","REV_AT_EPOCH":"6762","FILE":"3198018","SITE":"AFETR"},{"DECAY_DATE":null,"APOAPSIS":"548.366","NORAD_CAT_ID":"46132","MEAN_MOTION":"15.06398630","RCS_SIZE":"LARGE","RA_OF_ASC_NODE":"247.0648","REF_FRAME":"TEME","ARG_OF_PERICENTER":"72.8934","MEAN_ELEMENT_THEORY":"SGP4","MEAN_ANOMALY":"287.2236","MEAN_MOTION_DDOT":"0.0000000000000","TLE_LINE2":"2 46132  53.0549 247.0648 0001658  72.8934 287.2236 15.06398630 67923","LAUNCH_DATE":"2020-08-18","ECCENTRICITY":"0.00016580","SEMIMAJOR_AXIS":"6925.353","ELEMENT_SET_NO":"999","PERIAPSIS":"546.070","TLE_LINE1":"1 46132U 20057R   21306.32588375  .00000121  00000-0  27021-4 0  9993","EPOCH":"2021-11-02T07:49:16.356000","TIME_SYSTEM":"UTC","OBJECT_TYPE":"PAYLOAD","FILE":"3197731","REV_AT_EPOCH":"6792","CENTER_NAME":"EARTH","SITE":"AFETR","GP_ID":"188735977","MEAN_MOTION_DOT":"0.00000121","INCLINATION":"53.0549","EPHEMERIS_TYPE":"0","OBJECT_ID":"2020-057R","OBJECT_NAME":"STARLINK-1630","COUNTRY_CODE":"US","CLASSIFICATION_TYPE":"U","PERIOD":"95.592","BSTAR":"0.00002702100000"},{"LAUNCH_DATE":"2020-08-18","MEAN_ANOMALY":"289.9678","MEAN_ELEMENT_THEORY":"SGP4","TLE_LINE2":"2 46133  53.0524 204.3851 0001413  70.1463 289.9678 15.06394110 68565","MEAN_MOTION_DDOT":"0.0000000000000","PERIAPSIS":"546.253","ELEMENT_SET_NO":"999","SEMIMAJOR_AXIS":"6925.367","ECCENTRICITY":"0.00014130","TLE_LINE1":"1 46133U 20057S   21306.92300646  .00000628  00000-0  61088-4 0  9996","EPOCH":"2021-11-02T22:09:07.758144","OBJECT_TYPE":"PAYLOAD","TIME_SYSTEM":"UTC","DECAY_DATE":null,"NORAD_CAT_ID":"46133","APOAPSIS":"548.210","MEAN_MOTION":"15.06394110","REF_FRAME":"TEME","ARG_OF_PERICENTER":"70.1463","RCS_SIZE":"LARGE","RA_OF_ASC_NODE":"204.3851","EPHEMERIS_TYPE":"0","OBJECT_ID":"2020-057S","OBJECT_NAME":"STARLINK-1637","MEAN_MOTION_DOT":"0.00000628","INCLINATION":"53.0524","COUNTRY_CODE":"US","CLASSIFICATION_TYPE":"U","BSTAR":"0.00006108800000","PERIOD":"95.593","REV_AT_EPOCH":"6856","CENTER_NAME":"EARTH","FILE":"3198350","SITE":"AFETR","GP_ID":"188772945"},{"LAUNCH_DATE":"2020-08-18","MEAN_ANOMALY":"286.7620","MEAN_ELEMENT_THEORY":"SGP4","TLE_LINE2":"2 46134  53.0527 204.3721 0001567  73.3541 286.7620 15.06407567 67312","MEAN_MOTION_DDOT":"0.0000000000000","PERIAPSIS":"546.105","ELEMENT_SET_NO":"999","SEMIMAJOR_AXIS":"6925.325","ECCENTRICITY":"0.00015670","TLE_LINE1":"1 46134U 20057T   21306.92668341  .00002315  00000-0  17422-3 0  9993","EPOCH":"2021-11-02T22:14:25.446624","TIME_SYSTEM":"UTC","OBJECT_TYPE":"PAYLOAD","DECAY_DATE":null,"APOAPSIS":"548.276","NORAD_CAT_ID":"46134","MEAN_MOTION":"15.06407567","REF_FRAME":"TEME","ARG_OF_PERICENTER":"73.3541","RCS_SIZE":"LARGE","RA_OF_ASC_NODE":"204.3721","EPHEMERIS_TYPE":"0","OBJECT_NAME":"STARLINK-1638","OBJECT_ID":"2020-057T","MEAN_MOTION_DOT":"0.00002315","INCLINATION":"53.0527","COUNTRY_CODE":"US","CLASSIFICATION_TYPE":"U","BSTAR":"0.00017422000000","PERIOD":"95.592","REV_AT_EPOCH":"6731","CENTER_NAME":"EARTH","FILE":"3198350","SITE":"AFETR","GP_ID":"188773695"},{"ELEMENT_SET_NO":"999","SEMIMAJOR_AXIS":"6925.358","ECCENTRICITY":"0.00015690","PERIAPSIS":"546.136","MEAN_MOTION_DDOT":"0.0000000000000","TLE_LINE2":"2 46135  53.0543 207.5741 0001569  67.0797 293.0357 15.06396987 67202","MEAN_ELEMENT_THEORY":"SGP4","MEAN_ANOMALY":"293.0357","LAUNCH_DATE":"2020-08-18","TIME_SYSTEM":"UTC","OBJECT_TYPE":"PAYLOAD","EPOCH":"2021-11-02T05:04:44.517504","TLE_LINE1":"1 46135U 20057U   21306.21162636 -.00001987  00000-0 -11453-3 0  9996","APOAPSIS":"548.309","NORAD_CAT_ID":"46135","DECAY_DATE":null,"RCS_SIZE":"LARGE","RA_OF_ASC_NODE":"207.5741","ARG_OF_PERICENTER":"67.0797","REF_FRAME":"TEME","MEAN_MOTION":"15.06396987","COUNTRY_CODE":"US","MEAN_MOTION_DOT":"-0.00001987","INCLINATION":"53.0543","OBJECT_NAME":"STARLINK-1639","OBJECT_ID":"2020-057U","EPHEMERIS_TYPE":"0","PERIOD":"95.592","BSTAR":"-0.00011453000000","CLASSIFICATION_TYPE":"U","SITE":"AFETR","FILE":"3197731","CENTER_NAME":"EARTH","REV_AT_EPOCH":"6720","GP_ID":"188737219"},{"RA_OF_ASC_NODE":"236.1722","RCS_SIZE":"LARGE","REF_FRAME":"TEME","ARG_OF_PERICENTER":"71.4188","MEAN_MOTION":"15.06397084","NORAD_CAT_ID":"46136","APOAPSIS":"548.396","DECAY_DATE":null,"EPOCH":"2021-11-02T12:37:12.958752","OBJECT_TYPE":"PAYLOAD","TIME_SYSTEM":"UTC","TLE_LINE1":"1 46136U 20057V   21306.52584443  .00000653  00000-0  62752-4 0  9991","SEMIMAJOR_AXIS":"6925.357","ELEMENT_SET_NO":"999","ECCENTRICITY":"0.00016940","PERIAPSIS":"546.049","MEAN_ANOMALY":"288.6984","MEAN_ELEMENT_THEORY":"SGP4","MEAN_MOTION_DDOT":"0.0000000000000","TLE_LINE2":"2 46136  53.0526 236.1722 0001694  71.4188 288.6984 15.06397084 66836","LAUNCH_DATE":"2020-08-18","GP_ID":"188772194","SITE":"AFETR","FILE":"3198350","CENTER_NAME":"EARTH","REV_AT_EPOCH":"6683","PERIOD":"95.592","BSTAR":"0.00006275200000","CLASSIFICATION_TYPE":"U","COUNTRY_CODE":"US","MEAN_MOTION_DOT":"0.00000653","INCLINATION":"53.0526","EPHEMERIS_TYPE":"0","OBJECT_ID":"2020-057V","OBJECT_NAME":"STARLINK-1643"}];
